start=new Date('2022-02-11T00:00:00.000Z').valueOf();
sats=[{"APOAPSIS":"351.014","CENTER_NAME":"EARTH","MEAN_MOTION":"15.73255648","MEAN_MOTION_DDOT":"0.0000000000000","RCS_SIZE":"LARGE","PERIAPSIS":"348.189","ECCENTRICITY":"0.00020990","OBJECT_TYPE":"PAYLOAD","MEAN_ANOMALY":"320.3105","REF_FRAME":"TEME","SITE":"AFETR","TLE_LINE2":"2 50826  53.2160  25.7243 0002099  27.7566 320.3105 15.73255648  3683","EPOCH":"2022-02-10T22:00:00.999936","LAUNCH_DATE":"2022-01-06","BSTAR":"-0.00007177200000","SEMIMAJOR_AXIS":"6727.737","ELEMENT_SET_NO":"999","MEAN_ELEMENT_THEORY":"SGP4","CLASSIFICATION_TYPE":"U","OBJECT_ID":"2022-001Z","FILE":"3297147","TIME_SYSTEM":"UTC","INCLINATION":"53.2160","EPHEMERIS_TYPE":"0","DECAY_DATE":null,"OBJECT_NAME":"STARLINK-3337","ARG_OF_PERICENTER":"27.7566","GP_ID":"195716230","RA_OF_ASC_NODE":"25.7243","PERIOD":"91.530","NORAD_CAT_ID":"50826","MEAN_MOTION_DOT":"-0.00010707","TLE_LINE1":"1 50826U 22001Z   22041.91667824 -.00010707  00000-0 -71772-4 0  9993","COUNTRY_CODE":"US","REV_AT_EPOCH":"368"},{"REV_AT_EPOCH":"368","COUNTRY_CODE":"US","RA_OF_ASC_NODE":"25.7366","TLE_LINE1":"1 50827U 22001AA  22041.91667824  .00085660  00000-0  60916-3 0  9999","MEAN_MOTION_DOT":"0.00085660","PERIOD":"91.535","NORAD_CAT_ID":"50827","OBJECT_NAME":"STARLINK-3329","DECAY_DATE":null,"EPHEMERIS_TYPE":"0","GP_ID":"195716982","ARG_OF_PERICENTER":"43.2927","OBJECT_ID":"2022-001AA","ELEMENT_SET_NO":"999","SEMIMAJOR_AXIS":"6727.964","CLASSIFICATION_TYPE":"U","MEAN_ELEMENT_THEORY":"SGP4","INCLINATION":"53.2164","FILE":"3297147","TIME_SYSTEM":"UTC","EPOCH":"2022-02-10T22:00:00.999936","BSTAR":"0.00060916000000","LAUNCH_DATE":"2022-01-06","SITE":"AFETR","REF_FRAME":"TEME","TLE_LINE2":"2 50827  53.2164  25.7366 0001747  43.2927 298.9635 15.73175880  3684","OBJECT_TYPE":"PAYLOAD","MEAN_ANOMALY":"298.9635","RCS_SIZE":"LARGE","PERIAPSIS":"348.654","MEAN_MOTION_DDOT":"0.0000000000000","ECCENTRICITY":"0.00017470","APOAPSIS":"351.004","MEAN_MOTION":"15.73175880","CENTER_NAME":"EARTH"},{"GP_ID":"195716732","ARG_OF_PERICENTER":"24.0066","OBJECT_NAME":"STARLINK-3290","DECAY_DATE":null,"EPHEMERIS_TYPE":"0","INCLINATION":"53.2157","TIME_SYSTEM":"UTC","FILE":"3297147","OBJECT_ID":"2022-001AB","CLASSIFICATION_TYPE":"U","MEAN_ELEMENT_THEORY":"SGP4","SEMIMAJOR_AXIS":"6727.861","ELEMENT_SET_NO":"999","REV_AT_EPOCH":"540","COUNTRY_CODE":"US","MEAN_MOTION_DOT":"0.00028080","TLE_LINE1":"1 50828U 22001AB  22041.91858235  .00028080  00000-0  20371-3 0  9992","NORAD_CAT_ID":"50828","PERIOD":"91.532","RA_OF_ASC_NODE":"25.7120","ECCENTRICITY":"0.00015710","PERIAPSIS":"348.669","RCS_SIZE":"LARGE","MEAN_MOTION_DDOT":"0.0000000000000","MEAN_MOTION":"15.73212121","CENTER_NAME":"EARTH","APOAPSIS":"350.783","BSTAR":"0.00020371000000","LAUNCH_DATE":"2022-01-06","EPOCH":"2022-02-10T22:02:45.515040","TLE_LINE2":"2 50828  53.2157  25.7120 0001571  24.0066 336.1027 15.73212121  5403","REF_FRAME":"TEME","SITE":"AFETR","MEAN_ANOMALY":"336.1027","OBJECT_TYPE":"PAYLOAD"},{"MEAN_MOTION_DDOT":"0.0000000000000","PERIAPSIS":"348.454","RCS_SIZE":"LARGE","ECCENTRICITY":"0.00019260","APOAPSIS":"351.046","CENTER_NAME":"EARTH","MEAN_MOTION":"15.73203633","EPOCH":"2022-02-10T22:00:00.999936","LAUNCH_DATE":"2022-01-06","BSTAR":"0.00059141000000","MEAN_ANOMALY":"306.1300","OBJECT_TYPE":"PAYLOAD","TLE_LINE2":"2 50829  53.2162  25.7389 0001926  34.8994 306.1300 15.73203633  3687","REF_FRAME":"TEME","SITE":"AFETR","EPHEMERIS_TYPE":"0","DECAY_DATE":null,"OBJECT_NAME":"STARLINK-3294","ARG_OF_PERICENTER":"34.8994","GP_ID":"195715481","CLASSIFICATION_TYPE":"U","MEAN_ELEMENT_THEORY":"SGP4","SEMIMAJOR_AXIS":"6727.885","ELEMENT_SET_NO":"999","OBJECT_ID":"2022-001AC","TIME_SYSTEM":"UTC","FILE":"3297147","INCLINATION":"53.2162","COUNTRY_CODE":"US","REV_AT_EPOCH":"368","RA_OF_ASC_NODE":"25.7389","NORAD_CAT_ID":"50829","PERIOD":"91.533","MEAN_MOTION_DOT":"0.00083222","TLE_LINE1":"1 50829U 22001AC  22041.91667824  .00083222  00000-0  59141-3 0  9991"},{"CENTER_NAME":"EARTH","MEAN_MOTION":"15.64096735","APOAPSIS":"376.929","ECCENTRICITY":"0.00016130","MEAN_MOTION_DDOT":"0.0000000000000","PERIAPSIS":"374.750","RCS_SIZE":"LARGE","MEAN_ANOMALY":"339.5755","OBJECT_TYPE":"PAYLOAD","TLE_LINE2":"2 50830  53.2157  25.8614 0001613  20.5326 339.5755 15.64096735  5554","REF_FRAME":"TEME","SITE":"AFETR","LAUNCH_DATE":"2022-01-06","BSTAR":"-0.00422550000000","EPOCH":"2022-02-10T22:31:35.055552","TIME_SYSTEM":"UTC","FILE":"3297147","INCLINATION":"53.2157","MEAN_ELEMENT_THEORY":"SGP4","CLASSIFICATION_TYPE":"U","ELEMENT_SET_NO":"999","SEMIMAJOR_AXIS":"6753.975","OBJECT_ID":"2022-001AD","ARG_OF_PERICENTER":"20.5326","GP_ID":"195716232","EPHEMERIS_TYPE":"0","OBJECT_NAME":"STARLINK-3278","DECAY_DATE":null,"NORAD_CAT_ID":"50830","PERIOD":"92.066","MEAN_MOTION_DOT":"-0.00389512","TLE_LINE1":"1 50830U 22001AD  22041.93860018 -.00389512  00000-0 -42255-2 0  9995","RA_OF_ASC_NODE":"25.8614","COUNTRY_CODE":"US","REV_AT_EPOCH":"555"},{"MEAN_MOTION_DDOT":"0.0000000000000","RCS_SIZE":"LARGE","PERIAPSIS":"348.427","ECCENTRICITY":"0.00019420","APOAPSIS":"351.040","CENTER_NAME":"EARTH","MEAN_MOTION":"15.73209241","EPOCH":"2022-02-10T22:00:00.999936","LAUNCH_DATE":"2022-01-06","BSTAR":"0.00064109000000","MEAN_ANOMALY":"327.7603","OBJECT_TYPE":"PAYLOAD","TLE_LINE2":"2 50831  53.2159  25.7232 0001942  20.9308 327.7603 15.73209241  3682","SITE":"AFETR","REF_FRAME":"TEME","EPHEMERIS_TYPE":"0","DECAY_DATE":null,"OBJECT_NAME":"STARLINK-3299","ARG_OF_PERICENTER":"20.9308","GP_ID":"195716483","MEAN_ELEMENT_THEORY":"SGP4","CLASSIFICATION_TYPE":"U","SEMIMAJOR_AXIS":"6727.869","ELEMENT_SET_NO":"999","OBJECT_ID":"2022-001AE","TIME_SYSTEM":"UTC","FILE":"3297147","INCLINATION":"53.2159","COUNTRY_CODE":"US","REV_AT_EPOCH":"368","RA_OF_ASC_NODE":"25.7232","NORAD_CAT_ID":"50831","PERIOD":"91.533","MEAN_MOTION_DOT":"0.00090364","TLE_LINE1":"1 50831U 22001AE  22041.91667824  .00090364  00000-0  64109-3 0  9999"},{"MEAN_MOTION_DDOT":"0.0000000000000","RCS_SIZE":"LARGE","PERIAPSIS":"375.088","ECCENTRICITY":"0.00017230","APOAPSIS":"377.415","CENTER_NAME":"EARTH","MEAN_MOTION":"15.63953720","EPOCH":"2022-02-10T22:00:00.999936","LAUNCH_DATE":"2022-01-06","BSTAR":"-0.00743320000000","MEAN_ANOMALY":"202.4289","OBJECT_TYPE":"PAYLOAD","TLE_LINE2":"2 50832  53.2176  25.9840 0001723  37.6484 202.4289 15.63953720  3682","REF_FRAME":"TEME","SITE":"AFETR","EPHEMERIS_TYPE":"0","OBJECT_NAME":"STARLINK-3328","DECAY_DATE":null,"ARG_OF_PERICENTER":"37.6484","GP_ID":"195717232","CLASSIFICATION_TYPE":"U","MEAN_ELEMENT_THEORY":"SGP4","SEMIMAJOR_AXIS":"6754.387","ELEMENT_SET_NO":"999","OBJECT_ID":"2022-001AF","TIME_SYSTEM":"UTC","FILE":"3297147","INCLINATION":"53.2176","COUNTRY_CODE":"US","REV_AT_EPOCH":"368","RA_OF_ASC_NODE":"25.9840","NORAD_CAT_ID":"50832","PERIOD":"92.074","MEAN_MOTION_DOT":"-0.00659062","TLE_LINE1":"1 50832U 22001AF  22041.91667824 -.00659062  00000-0 -74332-2 0  9996"},{"MEAN_MOTION_DDOT":"0.0000000000000","RCS_SIZE":"LARGE","PERIAPSIS":"348.205","ECCENTRICITY":"0.00020800","APOAPSIS":"351.004","CENTER_NAME":"EARTH","MEAN_MOTION":"15.73254488","EPOCH":"2022-02-10T22:00:00.999936","LAUNCH_DATE":"2022-01-06","BSTAR":"-0.00000996710000","MEAN_ANOMALY":"316.3105","OBJECT_TYPE":"PAYLOAD","TLE_LINE2":"2 50833  53.2145  25.7264 0002080  31.1001 316.3105 15.73254488  3686","SITE":"AFETR","REF_FRAME":"TEME","EPHEMERIS_TYPE":"0","OBJECT_NAME":"STARLINK-3316","DECAY_DATE":null,"ARG_OF_PERICENTER":"31.1001","GP_ID":"195715981","CLASSIFICATION_TYPE":"U","MEAN_ELEMENT_THEORY":"SGP4","SEMIMAJOR_AXIS":"6727.740","ELEMENT_SET_NO":"999","OBJECT_ID":"2022-001AG","TIME_SYSTEM":"UTC","FILE":"3297147","INCLINATION":"53.2145","COUNTRY_CODE":"US","REV_AT_EPOCH":"368","RA_OF_ASC_NODE":"25.7264","NORAD_CAT_ID":"50833","PERIOD":"91.530","TLE_LINE1":"1 50833U 22001AG  22041.91667824 -.00002024  00000-0 -99671-5 0  9993","MEAN_MOTION_DOT":"-0.00002024"},{"ECCENTRICITY":"0.00013370","RCS_SIZE":"LARGE","PERIAPSIS":"380.602","MEAN_MOTION_DDOT":"0.0000000000000","MEAN_MOTION":"15.62130549","CENTER_NAME":"EARTH","APOAPSIS":"382.410","BSTAR":"-0.00798920000000","LAUNCH_DATE":"2022-01-06","EPOCH":"2022-02-10T22:00:00.999936","REF_FRAME":"TEME","SITE":"AFETR","TLE_LINE2":"2 50834  53.2174  25.9770 0001337  65.0571 129.2500 15.62130549  3684","OBJECT_TYPE":"PAYLOAD","MEAN_ANOMALY":"129.2500","GP_ID":"195716231","ARG_OF_PERICENTER":"65.0571","OBJECT_NAME":"STARLINK-3331","DECAY_DATE":null,"EPHEMERIS_TYPE":"0","INCLINATION":"53.2174","FILE":"3297147","TIME_SYSTEM":"UTC","OBJECT_ID":"2022-001AH","SEMIMAJOR_AXIS":"6759.641","ELEMENT_SET_NO":"999","CLASSIFICATION_TYPE":"U","MEAN_ELEMENT_THEORY":"SGP4","REV_AT_EPOCH":"368","COUNTRY_CODE":"US","TLE_LINE1":"1 50834U 22001AH  22041.91667824 -.00659128  00000-0 -79892-2 0  9997","MEAN_MOTION_DOT":"-0.00659128","PERIOD":"92.182","NORAD_CAT_ID":"50834","RA_OF_ASC_NODE":"25.9770"},{"RA_OF_ASC_NODE":"25.9763","NORAD_CAT_ID":"50835","PERIOD":"92.168","MEAN_MOTION_DOT":"-0.00659162","TLE_LINE1":"1 50835U 22001AJ  22041.91667824 -.00659162  00000-0 -79158-2 0  9991","COUNTRY_CODE":"US","REV_AT_EPOCH":"368","CLASSIFICATION_TYPE":"U","MEAN_ELEMENT_THEORY":"SGP4","ELEMENT_SET_NO":"999","SEMIMAJOR_AXIS":"6758.966","OBJECT_ID":"2022-001AJ","TIME_SYSTEM":"UTC","FILE":"3297147","INCLINATION":"53.2174","EPHEMERIS_TYPE":"0","DECAY_DATE":null,"OBJECT_NAME":"STARLINK-3310","ARG_OF_PERICENTER":"37.3865","GP_ID":"195716983","MEAN_ANOMALY":"164.7915","OBJECT_TYPE":"PAYLOAD","TLE_LINE2":"2 50835  53.2174  25.9763 0001762  37.3865 164.7915 15.62364401  3687","SITE":"AFETR","REF_FRAME":"TEME","EPOCH":"2022-02-10T22:00:00.999936","LAUNCH_DATE":"2022-01-06","BSTAR":"-0.00791580000000","APOAPSIS":"382.022","CENTER_NAME":"EARTH","MEAN_MOTION":"15.62364401","MEAN_MOTION_DDOT":"0.0000000000000","PERIAPSIS":"379.640","RCS_SIZE":"LARGE","ECCENTRICITY":"0.00017620"}];
